#dP2021 12  8  0  0  0.00000000      96 __u+U ITR00 FIT  IAC
## 2187 259200.00000000   900.00000000 59556 0.0000000000000
+  127   C01C02C03C04C05C06C07C08C09C10C11C12C13C14C16C19C20
+        C21C22C23C24C25C26C27C28C29C30C32C33C34C35C36C37C38
+        C39C40C41C42C43C44C45C46C59C60E01E02E03E04E05E07E08
+        E09E11E12E13E14E15E18E19E21E24E25E26E27E30E31E33E36
+        G01G02G03G04G05G06G07G08G09G10G12G13G14G15G16G17G18
+        G19G20G21G22G23G24G25G26G27G28G29G30G31G32J01J02J03
+        J07R01R02R03R04R05R06R07R08R09R10R11R12R13R14R15R16
+        R17R18R19R20R21R22R23R24  0  0  0  0  0  0  0  0  0
++        13 12 13 13 13  9  9  9  9  9  8  9  9  8  9  7  7
++         7  7  7  7  7  7  7  7  7  7  7  7  7  7  8  7  8
++         8  8  7  7  7  7  8  7 18 13  5  4  4  4  4  5  5
++         4  4  5  5  5  5  5  4  4  4  4  5  4  4  5  5  4
++         4  4  4  4  4  4  3  3  4  3  4  3  4  4  4  4  3
++         4  4  4  4  3  4  4  4  3  4  4  3  4  4  9  8  8
++        15  7  6  6  6  6 13  6  6  6 13  7  6  7  5  6  7
++         6  6  7  7  6  7 13  6  0  0  0  0  0  0  0  0  0
%c M  cc GPS ccc cccc cccc cccc cccc ccccc ccccc ccccc ccccc
%c cc cc ccc ccc cccc cccc cccc cccc ccccc ccccc ccccc ccccc
%f  0.0000000  0.000000000  0.00000000000  0.000000000000000
%f  0.0000000  0.000000000  0.00000000000  0.000000000000000
%i    0    0    0    0      0      0      0      0         0
%i    0    0    0    0      0      0      0      0         0
/* INFORMATION & ANALYSIS CENTER (IAC)            RAPID DATA
/* S/V CLOCKS ARE ALIGNED TO GNSS TIME                      
/* G:C1WC2W R:C1PC2P E:C1XC5X C:C2IC6I J:C1CC2S             
/* PCV:IGS14_2178 OL/AL:FES2004  NONE     YN ORB:CoN CLK:CoN
*  2021 12 08  6 30  0.00000000
PC01 -34377.584561  24426.514717   -320.547753   -367.415343
PC02   4474.313420  41937.082008     99.122033    826.564718
PC03 -14760.951844  39517.761162   -740.153899    322.228330
PC04 -39668.950311  14332.710006   -584.432516    328.554292
PC05  21942.651316  36011.147487    428.843690    326.693869
PC06  -9441.208260  23725.878614  33514.024488    603.052943
PC07 -14488.936898  39188.810447  -6140.157165    147.385628
PC08   1981.318700  33834.488847 -24977.390624    -40.829825
PC09  -1884.879063  24615.239537  34493.840655   -330.548271
PC10  -8105.140433  39466.918314 -12944.578140    136.683990
PC11  27022.966477   5305.163359  -4308.299063   -346.420604
PC12  14884.283117  13798.637927 -19098.850766   -424.750518
PC13   5602.925589  36040.714481 -20774.215661   -184.703371
PC14  17290.632352   1305.296049  21869.989338    504.857943
PC16 -15657.339244  21994.780582  32456.045610     16.480845
PC19 -20081.091805   8971.879549 -17163.425112    925.428515
PC20 -12775.687410  -9358.145652 -22969.979321   -793.307753
PC21  -2696.950258  23183.697998  15316.256677   -944.718713
PC22 -16097.155302  22776.565393  -1206.444558   -968.259939
PC23   7946.656259 -17207.652053 -20482.815924   -963.065964
PC24  17107.183647  20029.461151  -9173.522648   -953.475862
PC25  17723.302318    680.739678 -21545.943051   -813.199904
PC26   7777.963135  25844.858441   6999.063686    810.932805
PC27  -4780.431906 -15914.115975  22402.341878    641.773938
PC28  15983.674916 -12171.804107  19371.618736      6.382546
PC29 -27391.139500   2252.244216  -4841.630240    484.728706
PC30 -22683.561995  -9874.525821  12891.258996    488.236602
PC32   2576.711359 -23226.670735 -15243.538119   -957.645936
PC33  20037.185104  -8954.872910  17229.427518   -962.849290
PC34  23294.566399   9467.978465 -12130.768997   -519.563553
PC35 -16067.367107  12562.372372 -19034.746757     36.226591
PC36 -17853.451612  -1622.371069  21410.252329   -825.700062
PC37  -6432.930761 -25978.011516  -7944.034316   -907.586779
PC38  -6527.656306  28892.200830 -29920.850305    195.068791
PC39 -20211.985083  21462.262043  30075.064762     34.279301
PC40 -21975.145277  35981.625253  -2603.332697    224.636363
PC41  16247.534788 -22639.016081   1645.262856   -915.734763
PC42  12212.143805  10299.352483  22917.907343   -935.238075
PC43  27540.036441  -1746.128599   4224.922896   -955.793441
PC44   5121.325492  15896.585551 -22365.959095    491.155899
PC45  -7704.384282  17303.733722  20483.777143    621.263295
PC46 -17505.963151 -19163.614191  10310.586863    -49.156786
PC59 -32286.985947  27100.271806    571.238939      0.249559
PC60   7264.975592  41500.875689  -1653.738469     -0.354107
PE01  -1968.737417  29509.768084   1022.354796   -533.447013
PE02   1863.044640 -29542.201922   -865.316269    265.428711
PE03   6521.040932 -20050.252455 -20782.548541   -504.099500
PE04  13902.756212  11447.630908  23489.328330   -916.173188
PE05  23508.131749 -17030.118961  -5803.220875   -228.103780
PE07 -26580.108666   4126.617411 -12364.162542   -615.302921
PE08 -14266.528220 -10994.141091 -23498.329449   5892.405216
PE09  26574.066398  -4466.269773  12233.056239   5437.316089
PE11  26137.628102   7094.601327  11950.990336   4935.217428
PE12  21376.764878  19057.519793  -7501.513183   4871.590890
PE13 -26241.514771  -7519.304680 -11439.692269    424.466477
PE14   4832.947764 -15696.898889  16687.430504  -1667.137186
PE15 -21368.439000 -19014.278190   7634.600737    776.520443
PE18  -6444.656148  21699.681210 -23361.247158  -1833.478242
PE19  -9170.441069  20244.334490  19545.005700    446.796265
PE21 -12582.396322  20411.337137  17351.469371   -704.041087
PE24  16541.984694   2289.539453 -24446.766863  -1268.135059
PE25  12675.148081 -20230.677184 -17499.460120   -556.156255
PE26 -14875.429746   9195.981118 -23873.746934   -544.846646
PE27 -16575.254349   -932.301896  24512.840661   -182.037934
PE30 -10116.251159 -22523.114742  16338.194467    -92.348404
PE31  10782.813983  21534.827519 -17191.145013   -489.078389
PE33   3931.097088  19256.858956 -22123.735822   -461.683249
PE36  15660.726710  -8345.246597  23698.952009   -300.848930
PG01  21978.967913  13537.553445   6693.782966    489.850348
PG02 -11267.387723 -20147.976631  13712.398400   -644.930187
PG03  13492.976934   7560.691064  21501.003081    -34.941411
PG04  23036.939894   2421.278474  13064.664303   -199.733343
PG05  -6900.323041 -21351.173800 -14256.905325    -63.675092
PG06   3824.585921 -15413.522816  21344.891622    137.160720
PG07  19388.619818    -86.485645 -17991.166971    288.204724
PG08  14735.054123   9391.533498 -20111.494830    -47.247330
PG09  25394.583574  -7345.450264   2664.755419   -360.807290
PG10 -11596.017775  20964.703277 -11009.393436   -263.687588
PG12 -12047.610282 -10483.251972  20991.819481   -137.608919
PG13  -6468.732286 -13991.914652 -21796.818142    226.200631
PG14  12830.599271 -20409.363452 -11083.700800    -51.633504
PG15 -16345.616710  -8354.389945 -19701.661970   -100.765207
PG16   2151.029002  23277.823601 -12403.128770   -436.906869
PG17  20302.364289 -13426.114754  11105.876822    544.466718
PG18 -18406.128484   1083.993509 -19158.940093    283.164310
PG19  13539.680566 -14875.281789  16992.429390     89.373765
PG20  -1826.232802 -26364.979241  -3836.256722    517.745594
PG21  20999.392503  16653.913941  -1339.600051    153.165093
PG22  11830.241334  15990.200487  17870.334520   -446.512071
PG23 -15053.059179  10808.372908 -19011.853956     24.248199
PG24 -22209.929658 -14834.004302   1760.577544    273.407570
PG25 -15519.933733   2443.413573  21107.707088    252.473434
PG26  -4711.272785  25924.387380   1487.186504    162.909908
PG27   3614.847379  14609.215612 -22053.496683   -228.450157
PG28   9421.772458 -24680.366648  -3180.555745    447.471776
PG29 -25667.350579   2354.243246   6501.780116   -451.074711
PG30  12214.568036 -10071.390835 -21271.762611   -497.620413
PG31  -2356.360845  16991.355534  20034.389337   -153.982918
PG32 -16497.532934  15893.834487  13399.594893    -32.147363
PJ01 -30522.837068  29126.870583   3317.664116    105.608872
PJ02 -27314.905465  26062.217271  23786.641742     -0.298443
PJ03 -30541.771331  16921.328104 -18926.107554     -8.555088
PJ07 -25413.617445  33640.760217     27.432654     -0.031899
PR01 -15485.304945  19779.983666   4449.259981     89.182807
PR02  -1196.543115  15032.562353  20587.607019    502.591195
PR03  12838.455461   1802.043344  22015.355744     47.773416
PR04  19375.364969 -12269.144202  11204.433939    117.823705
PR05  15384.055967 -19509.190168  -5841.448718     83.816646
PR06   -154.877884 -14645.236653 -20908.556064    -20.184056
PR07 -13195.863625  -1263.019423 -21751.490773    -39.388138
PR08 -19361.090541  12352.360378 -11020.495098    -62.443880
PR09  -7764.436729 -24244.611327    864.586497     27.615459
PR10 -12565.617817 -15612.864666  15820.181820    -77.783125
PR11 -10488.674624   2965.322041  23071.596733     49.255198
PR12  -2128.039254  19883.525452  15845.930707    284.750102
PR13   7257.728382  24450.427184    165.421353    -64.547281
PR14  12649.910500  14492.442882 -16746.531122     71.838044
PR15  10412.692127  -3604.189298 -22986.513305     99.738659
PR16    951.230591 -20859.241158 -14772.946600    -26.403756
PR17  23262.453398   8695.917585  -5712.231817    481.667598
PR18  22992.768736    967.960386  11074.820361     99.762549
PR19  11708.218398  -6594.739767  21685.288147   -169.879648
PR20  -9496.676437 -12192.187550  20294.925632    -60.791354
PR21 -23743.317922  -8289.422779   4369.936234   -260.547540
PR22 -22484.919452   -593.191654 -11948.886229   -150.064516
PR23  -5202.063353   9308.698326 -23172.833823    -22.592944
PR24  10372.967270  12396.053895 -19703.779996     70.261076
EOF
